ARCCUBE 1 (RS25S)       
1 57205U 23091AR  24057.48231561  .00015965  00000+0  97772-3 0  9992
2 57205  97.6265 111.5928 0012838 130.6227 229.6121 15.10207435 36736
SITRO-AIS 11 (SHEFFER)  
1 57208U 23091AU  24057.40564807  .00009951  00000+0  64188-3 0  9992
2 57208  97.6312 111.3672 0013983 124.0852 236.1706 15.08409521 36705
H2SAT (HEINRICH HERTZ)  
1 57213U 23093A   24056.33820644 -.00000001  00000+0  00000+0 0  9992
2 57213   0.0177 221.4114 0001315 259.2148 156.2828  1.00272221  2428
KUZGTU 1 (RS47S)        
1 57217U 23091AV  24057.46172283  .00008353  00000+0  56565-3 0  9996
2 57217  97.6300 110.8046 0019155 134.9540 225.3245 15.06593588 36671
2023-103B               
1 57422U 23103B   24057.49521435  .00063494  00000+0  41983-3 0  9993
2 57422  96.6004 132.1876 0007998 122.7616 237.4423 15.75342445 33925
FENGYUN 3F              
1 57490U 23111A   24057.46239183  .00000149  00000+0  91037-4 0  9994
2 57490  98.7819 127.5746 0001760  77.8129 282.3244 14.19771820 29410
METEOR 2-1 DEB          
1 57492U 75064F   24050.90340236  .00005635  00000+0  27617-2 0  9990
2 57492  81.2864 121.2613 0013589  33.1199 327.0824 14.17648785282252
HJ-2F                   
1 57519U 23116A   24057.50192086  .00016648  00000+0  72130-3 0  9999
2 57519  97.3931  65.8092 0002094  61.8149 298.3299 15.22459685 30681
XRISM                   
1 57800U 23137A   24057.13463560  .00006163  00000+0  48056-3 0  9993
2 57800  31.0050   5.0529 0010065 181.3859 178.6750 14.99734660 25841
